STARLINK-37886          
1 69943U 26157A   26201.58335648 -.00031988  00000+0 -15902-3 0  9995
2 69943  53.1592 268.8298 0001124  71.9590 108.7518 15.80886636  3026
STARLINK-37937          
1 69944U 26157B   26201.58335648 -.00005267  00000+0 -23163-4 0  9996
2 69944  53.1594 268.8110 0001088  79.2915 110.5079 15.80871560  3026
STARLINK-37903          
1 69945U 26157C   26201.58335648  .00001219  00000+0  97184-5 0  9993
2 69945  53.1593 268.8015 0001164  72.4985 121.8208 15.80873241  3024
STARLINK-37905          
1 69946U 26157D   26201.58335648 -.00008917  00000+0 -41682-4 0  9999
2 69946  53.1596 268.7613 0000962  71.9616 141.6412 15.80875103  3027
STARLINK-37904          
1 69947U 26157E   26201.58335648 -.00005274  00000+0 -23200-4 0  9999
2 69947  53.1595 268.7532 0000949  74.3822 143.1280 15.80872438  3026
STARLINK-37891          
1 69948U 26157F   26201.58335648 -.00004802  00000+0 -20804-4 0  9993
2 69948  53.1593 268.7441 0000941  75.9062 145.8970 15.80872187  3025
STARLINK-37923          
1 69949U 26157G   26201.58335648 -.00007300  00000+0 -33476-4 0  9999
2 69949  53.1595 268.7087 0000957  74.5028 164.4041 15.80872715  3021
STARLINK-37895          
1 69950U 26157H   26201.58335648 -.00049714  00000+0 -24932-3 0  9992
2 69950  53.1594 268.6930 0001088  59.9022 186.4566 15.80912194  3027
STARLINK-37841          
1 69951U 26157J   26201.58335648 -.00018732  00000+0 -91540-4 0  9999
2 69951  53.1596 268.6694 0001108  69.6615 188.1202 15.80879805  3023
STARLINK-37899          
1 69952U 26157K   26201.58335648 -.00046779  00000+0 -23455-3 0  9991
2 69952  53.1595 268.6462 0001168  69.6827 199.2527 15.80890737  3027
STARLINK-37900          
1 69953U 26157L   26201.58335648 -.00000629  00000+0  35228-6 0  9999
2 69953  53.1595 268.6381 0001141  79.7853 192.9884 15.80870129  3029
STARLINK-37882          
1 69954U 26157M   26201.58335648 -.00048841  00000+0 -24510-3 0  9998
2 69954  53.1594 268.6156 0001336  66.1630 217.4167 15.80890325  3025
STARLINK-37928          
1 69955U 26157N   26201.58335648 -.00032866  00000+0 -16352-3 0  9994
2 69955  53.1594 268.6142 0001189  77.1031 207.1608 15.80883716  3026
STARLINK-37824          
1 69956U 26157P   26201.58335648 -.00013817  00000+0 -66580-4 0  9999
2 69956  53.1594 268.6115 0000996  90.1405 195.5617 15.80871321  3021
STARLINK-37919          
1 69957U 26157Q   26201.58335648  .00002295  00000+0  15168-4 0  9992
2 69957  53.1594 268.6094 0001069  78.3237 208.3463 15.80868821  3024
STARLINK-37964          
1 69958U 26157R   26201.58335648 -.00006020  00000+0 -26991-4 0  9991
2 69958  53.1593 268.5959 0000562  57.2301 235.9191 15.80870097  3020
STARLINK-37907          
1 69959U 26157S   26201.58335648  .00011910  00000+0  63727-4 0  9992
2 69959  53.1591 268.5753 0001230  67.2481 235.9689 15.80897207  3028
STARLINK-37901          
1 69960U 26157T   26201.58335648 -.00039239  00000+0 -19606-3 0  9996
2 69960  53.1592 268.5615 0001029  65.7484 244.0969 15.80884446  3023
STARLINK-37910          
1 69961U 26157U   26201.58335648  .00001322  00000+0  10242-4 0  9995
2 69961  53.1592 268.5423 0001186  67.3382 251.5737 15.80864971  3027
STARLINK-37925          
1 69962U 26157V   26201.58335648 -.00008242  00000+0 -38198-4 0  9996
2 69962  53.1592 268.5386 0001098  67.1857 253.6947 15.80904924  3022
STARLINK-37931          
1 69963U 26157W   26201.58335648 -.00015573  00000+0 -75500-4 0  9990
2 69963  53.1592 268.5317 0000807  77.9207 246.2299 15.80873741  3022
STARLINK-37914          
1 69964U 26157X   26201.58335648 -.00039737  00000+0 -19859-3 0  9993
2 69964  53.1592 268.4966 0001379  81.6606 259.0472 15.80884661  3020
STARLINK-37840          
1 69965U 26157Y   26201.58335648 -.00024143  00000+0 -11909-3 0  9997
2 69965  53.1592 268.4619 0000893  71.2675 286.2966 15.80877746  3023
STARLINK-37894          
1 69966U 26157Z   26201.58335648 -.00004353  00000+0 -18532-4 0  9999
2 69966  53.1591 268.4758 0001342  62.5199 288.2511 15.80861579  3026
STARLINK-37875          
1 69967U 26157AA  26201.58335648  .00009462  00000+0  51462-4 0  9993
2 69967  53.1591 268.4548 0001207  67.2788 293.6403 15.80858594  3023
STARLINK-36218          
1 69968U 26157AB  26201.58335648 -.00003420  00000+0 -13791-4 0  9997
2 69968  53.1594 268.4272 0001220  79.1040 294.8660 15.80871898  2679
STARLINK-37921          
1 69969U 26157AC  26201.58335648  .00007818  00000+0  43133-4 0  9994
2 69969  53.1597 268.3901 0001212  72.7846 319.1436 15.80864831  3026
STARLINK-37896          
1 69970U 26157AD  26201.58335648  .00009703  00000+0  52667-4 0  9993
2 69970  53.1596 268.3878 0001250  87.2416 305.7834 15.80862740  3026
STARLINK-37922          
1 69971U 26157AE  26201.58335648  .00010995  00000+0  59204-4 0  9993
2 69971  53.1597 268.3847 0001188  75.6199 318.7307 15.80862861  3026
CHUANG XIN 26 (CX-26)   
1 69972U 26158A   26201.38633875 -.00000127  00000+0  14035-4 0  9996
2 69972  49.9831 258.5104 0004944 316.9950  43.0576 14.25124198  1449
