OBJECT_NAME,OBJECT_ID,EPOCH,MEAN_MOTION,ECCENTRICITY,INCLINATION,RA_OF_ASC_NODE,ARG_OF_PERICENTER,MEAN_ANOMALY,EPHEMERIS_TYPE,CLASSIFICATION_TYPE,NORAD_CAT_ID,ELEMENT_SET_NO,REV_AT_EPOCH,BSTAR,MEAN_MOTION_DOT,MEAN_MOTION_DDOT
STARLINK-37886,2026-157A,2026-07-20T14:00:01.999872,15.80886636,.00011241,53.1592,268.8298,71.9590,108.7518,0,U,69943,999,302,-.1590184E-3,-.31988E-3,0
STARLINK-37937,2026-157B,2026-07-20T14:00:01.999872,15.80871560,.0001088,53.1594,268.8110,79.2915,110.5079,0,U,69944,999,302,-.23162724E-4,-.5267E-4,0
STARLINK-37903,2026-157C,2026-07-20T14:00:01.999872,15.80873241,.0001164,53.1593,268.8015,72.4985,121.8208,0,U,69945,999,302,.971835E-5,.1219E-4,0
STARLINK-37905,2026-157D,2026-07-20T14:00:01.999872,15.80875103,.00009623,53.1596,268.7613,71.9616,141.6412,0,U,69946,999,302,-.41682402E-4,-.8917E-4,0
STARLINK-37904,2026-157E,2026-07-20T14:00:01.999872,15.80872438,.00009493,53.1595,268.7532,74.3822,143.1280,0,U,69947,999,302,-.23200223E-4,-.5274E-4,0
STARLINK-37891,2026-157F,2026-07-20T14:00:01.999872,15.80872187,.00009417,53.1593,268.7441,75.9062,145.8970,0,U,69948,999,302,-.20803636E-4,-.4802E-4,0
STARLINK-37923,2026-157G,2026-07-20T14:00:01.999872,15.80872715,.00009576,53.1595,268.7087,74.5028,164.4041,0,U,69949,999,302,-.33476406E-4,-.73E-4,0
STARLINK-37895,2026-157H,2026-07-20T14:00:01.999872,15.80912194,.00010886,53.1594,268.6930,59.9022,186.4566,0,U,69950,999,302,-.24932436E-3,-.49714E-3,0
STARLINK-37841,2026-157J,2026-07-20T14:00:01.999872,15.80879805,.00011086,53.1596,268.6694,69.6615,188.1202,0,U,69951,999,302,-.91540496E-4,-.18732E-3,0
STARLINK-37899,2026-157K,2026-07-20T14:00:01.999872,15.80890737,.00011684,53.1595,268.6462,69.6827,199.2527,0,U,69952,999,302,-.23454791E-3,-.46779E-3,0
STARLINK-37900,2026-157L,2026-07-20T14:00:01.999872,15.80870129,.0001141,53.1595,268.6381,79.7853,192.9884,0,U,69953,999,302,.35228E-6,-.629E-5,0
STARLINK-37882,2026-157M,2026-07-20T14:00:01.999872,15.80890325,.00013368,53.1594,268.6156,66.1630,217.4167,0,U,69954,999,302,-.24509978E-3,-.48841E-3,0
STARLINK-37928,2026-157N,2026-07-20T14:00:01.999872,15.80883716,.00011898,53.1594,268.6142,77.1031,207.1608,0,U,69955,999,302,-.16351962E-3,-.32866E-3,0
STARLINK-37824,2026-157P,2026-07-20T14:00:01.999872,15.80871321,.00009969,53.1594,268.6115,90.1405,195.5617,0,U,69956,999,302,-.66580106E-4,-.13817E-3,0
STARLINK-37919,2026-157Q,2026-07-20T14:00:01.999872,15.80868821,.00010697,53.1594,268.6094,78.3237,208.3463,0,U,69957,999,302,.15167992E-4,.2295E-4,0
STARLINK-37964,2026-157R,2026-07-20T14:00:01.999872,15.80870097,.00005626,53.1593,268.5959,57.2301,235.9191,0,U,69958,999,302,-.26991326E-4,-.602E-4,0
STARLINK-37907,2026-157S,2026-07-20T14:00:01.999872,15.80897207,.00012306,53.1591,268.5753,67.2481,235.9689,0,U,69959,999,302,.63726988E-4,.1191E-3,0
STARLINK-37901,2026-157T,2026-07-20T14:00:01.999872,15.80884446,.00010294,53.1592,268.5615,65.7484,244.0969,0,U,69960,999,302,-.19605891E-3,-.39239E-3,0
STARLINK-37910,2026-157U,2026-07-20T14:00:01.999872,15.80864971,.00011865,53.1592,268.5423,67.3382,251.5737,0,U,69961,999,302,.10242046E-4,.1322E-4,0
STARLINK-37925,2026-157V,2026-07-20T14:00:01.999872,15.80904924,.00010983,53.1592,268.5386,67.1857,253.6947,0,U,69962,999,302,-.3819831E-4,-.8242E-4,0
STARLINK-37931,2026-157W,2026-07-20T14:00:01.999872,15.80873741,.00008079,53.1592,268.5317,77.9207,246.2299,0,U,69963,999,302,-.7550046E-4,-.15573E-3,0
STARLINK-37914,2026-157X,2026-07-20T14:00:01.999872,15.80884661,.00013794,53.1592,268.4966,81.6606,259.0472,0,U,69964,999,302,-.19859095E-3,-.39737E-3,0
STARLINK-37840,2026-157Y,2026-07-20T14:00:01.999872,15.80877746,.00008935,53.1592,268.4619,71.2675,286.2966,0,U,69965,999,302,-.11909452E-3,-.24143E-3,0
STARLINK-37894,2026-157Z,2026-07-20T14:00:01.999872,15.80861579,.00013427,53.1591,268.4758,62.5199,288.2511,0,U,69966,999,302,-.1853214E-4,-.4353E-4,0
STARLINK-37875,2026-157AA,2026-07-20T14:00:01.999872,15.80858594,.00012077,53.1591,268.4548,67.2788,293.6403,0,U,69967,999,302,.51461557E-4,.9462E-4,0
STARLINK-36218,2026-157AB,2026-07-20T14:00:01.999872,15.80871898,.000122,53.1594,268.4272,79.1040,294.8660,0,U,69968,999,267,-.13790896E-4,-.342E-4,0
STARLINK-37921,2026-157AC,2026-07-20T14:00:01.999872,15.80864831,.00012123,53.1597,268.3901,72.7846,319.1436,0,U,69969,999,302,.43132754E-4,.7818E-4,0
STARLINK-37896,2026-157AD,2026-07-20T14:00:01.999872,15.80862740,.00012507,53.1596,268.3878,87.2416,305.7834,0,U,69970,999,302,.52667419E-4,.9703E-4,0
STARLINK-37922,2026-157AE,2026-07-20T14:00:01.999872,15.80862861,.00011885,53.1597,268.3847,75.6199,318.7307,0,U,69971,999,302,.59204349E-4,.10995E-3,0
CHUANG XIN 26 (CX-26),2026-158A,2026-07-20T09:16:19.668000,14.25124198,.00049444,49.9831,258.5104,316.9950,43.0576,0,U,69972,999,144,.14035061E-4,-.127E-5,0
